[
    {
        "Altitude(m)": 604234.5994145403,
        "Argument of Periapsis(deg)": 0.0,
        "Eccentricity": 0.0,
        "Inclination(deg)": 60.0,
        "Latitude(deg)": 14.117179791173436,
        "Longitude(deg)": -148.27264660831014,
        "Mean Anomaly(deg)": 163.6364,
        "RAAN(deg)": 140.0,
        "Satellite Name": "Test1 626",
        "Satellite Number": 626,
        "Semi-Major Axis(m)": 6980739.136638005,
        "Time(s)": 0
    },
    {
        "Altitude(m)": 604223.4282378693,
        "Argument of Periapsis(deg)": 0.00010418945913296404,
        "Eccentricity": 0.0,
        "Inclination(deg)": 60.0,
        "Latitude(deg)": 13.58231563267356,
        "Longitude(deg)": -147.9857385255087,
        "Mean Anomaly(deg)": 164.25650614546183,
        "RAAN(deg)": 139.99957995086024,
        "Satellite Name": "Test1 626",
        "Satellite Number": 626,
        "Semi-Major Axis(m)": 6980739.136638005,
        "Time(s)": 10
    }
]